{
  "type": "FeatureCollection",
  "features": [
    {
      "type": "Feature",
      "geometry": {
        "type": "Point",
        "coordinates": [
          36.144,
          30.342
        ]
      },
      "properties": {
        "id": "x-event-80a56902cb8246e6a572",
        "layer": "Social Media Early Reports",
        "title": "Early report: Prince Faisal Air Base, Jordan",
        "summary": "Development seed: an early report referenced activity near Prince Faisal Air Base.",
        "source_status": "single-source report",
        "verification_status": "not independently verified",
        "independent_source_count": 1,
        "report_count": 1,
        "accounts": [
          "FaytuksNetwork"
        ],
        "source_classes": [
          "social_media_aggregator"
        ],
        "event_types": [
          "reported_strike"
        ],
        "location_name": "Prince Faisal Air Base, Jordan",
        "location_precision": "facility_approximate",
        "first_reported_at": null,
        "last_updated_at": "2026-07-23T02:42:51Z",
        "source_urls": [
          "https://x.com/FaytuksNetwork/status/2078886247162920993"
        ],
        "reports": [
          {
            "url": "https://x.com/FaytuksNetwork/status/2078886247162920993",
            "account": "FaytuksNetwork",
            "text": "Development seed: an early report referenced activity near Prince Faisal Air Base.",
            "published_at": null,
            "collected_at": "2026-07-23T02:42:51Z",
            "source_class": "social_media_aggregator",
            "location_name": "Prince Faisal Air Base, Jordan",
            "latitude": 30.342,
            "longitude": 36.144,
            "location_precision": "facility_approximate",
            "event_type": "reported_strike",
            "verification_status": "not independently verified",
            "source_status": "single-source report",
            "quoted_source": null,
            "reposted_from": null,
            "fetch_attempted": false,
            "fetch_succeeded": false,
            "fetch_error": null,
            "id": "x-report-014985d4c67db16265a4",
            "claim_id": "x-claim-2c94227986f6233ec942"
          }
        ]
      }
    },
    {
      "type": "Feature",
      "geometry": {
        "type": "Point",
        "coordinates": [
          35.0063,
          29.5321
        ]
      },
      "properties": {
        "id": "x-event-3787a87bce21b812f22e",
        "layer": "Social Media Early Reports",
        "title": "Early report: Aqaba, Jordan",
        "summary": "Development seed: an X account reported an incident near Aqaba.",
        "source_status": "single-source report",
        "verification_status": "not independently verified",
        "independent_source_count": 1,
        "report_count": 2,
        "accounts": [
          "OSINTWarfare",
          "Worldsource24"
        ],
        "source_classes": [
          "social_media_aggregator",
          "social_media_osint"
        ],
        "event_types": [
          "reported_strike"
        ],
        "location_name": "Aqaba, Jordan",
        "location_precision": "city",
        "first_reported_at": null,
        "last_updated_at": "2026-07-23T02:42:51Z",
        "source_urls": [
          "https://x.com/OSINTWarfare/status/2079840397002485881",
          "https://x.com/Worldsource24/status/2079895190030946602"
        ],
        "reports": [
          {
            "url": "https://x.com/OSINTWarfare/status/2079840397002485881",
            "account": "OSINTWarfare",
            "text": "Development seed: an X account reported an incident near Aqaba.",
            "published_at": null,
            "collected_at": "2026-07-23T02:42:51Z",
            "source_class": "social_media_osint",
            "location_name": "Aqaba, Jordan",
            "latitude": 29.5321,
            "longitude": 35.0063,
            "location_precision": "city",
            "event_type": "reported_strike",
            "verification_status": "not independently verified",
            "source_status": "single-source report",
            "quoted_source": null,
            "reposted_from": null,
            "fetch_attempted": false,
            "fetch_succeeded": false,
            "fetch_error": null,
            "id": "x-report-d8c74331f1d28b77c7c9",
            "claim_id": "x-claim-4bfd30d2405eeacb6cd9"
          },
          {
            "url": "https://x.com/Worldsource24/status/2079895190030946602",
            "account": "Worldsource24",
            "text": "Development seed: an account repeated the Aqaba incident report.",
            "published_at": null,
            "collected_at": "2026-07-23T02:42:51Z",
            "source_class": "social_media_aggregator",
            "location_name": "Aqaba, Jordan",
            "latitude": 29.5321,
            "longitude": 35.0063,
            "location_precision": "city",
            "event_type": "reported_strike",
            "verification_status": "not independently verified",
            "source_status": "single-source report",
            "quoted_source": null,
            "reposted_from": "https://x.com/OSINTWarfare/status/2079840397002485881",
            "fetch_attempted": false,
            "fetch_succeeded": false,
            "fetch_error": null,
            "id": "x-report-bb35275243fbd49deedd",
            "claim_id": "x-claim-4bfd30d2405eeacb6cd9"
          }
        ]
      }
    },
    {
      "type": "Feature",
      "geometry": {
        "type": "Point",
        "coordinates": [
          52.5837,
          29.5918
        ]
      },
      "properties": {
        "id": "x-event-5377367266d3bd970b24",
        "layer": "Social Media Early Reports",
        "title": "Early report: Shiraz, Iran",
        "summary": "Development seed: an early report referenced an incident in Shiraz.",
        "source_status": "single-source report",
        "verification_status": "not independently verified",
        "independent_source_count": 1,
        "report_count": 1,
        "accounts": [
          "MonitorX99800"
        ],
        "source_classes": [
          "social_media_monitor"
        ],
        "event_types": [
          "reported_strike"
        ],
        "location_name": "Shiraz, Iran",
        "location_precision": "city",
        "first_reported_at": null,
        "last_updated_at": "2026-07-23T02:42:51Z",
        "source_urls": [
          "https://x.com/MonitorX99800/status/2078157300921975130"
        ],
        "reports": [
          {
            "url": "https://x.com/MonitorX99800/status/2078157300921975130",
            "account": "MonitorX99800",
            "text": "Development seed: an early report referenced an incident in Shiraz.",
            "published_at": null,
            "collected_at": "2026-07-23T02:42:51Z",
            "source_class": "social_media_monitor",
            "location_name": "Shiraz, Iran",
            "latitude": 29.5918,
            "longitude": 52.5837,
            "location_precision": "city",
            "event_type": "reported_strike",
            "verification_status": "not independently verified",
            "source_status": "single-source report",
            "quoted_source": null,
            "reposted_from": null,
            "fetch_attempted": false,
            "fetch_succeeded": false,
            "fetch_error": null,
            "id": "x-report-24716f5d95dfdacd97ad",
            "claim_id": "x-claim-017a3d9aabd893e5e2f6"
          }
        ]
      }
    },
    {
      "type": "Feature",
      "geometry": {
        "type": "Point",
        "coordinates": [
          56.35,
          26.86
        ]
      },
      "properties": {
        "id": "x-event-c2205ecfc16805eff680",
        "layer": "Social Media Early Reports",
        "title": "Early report: Lark Island, Iran",
        "summary": "Development seed: an early report referenced activity near Lark Island.",
        "source_status": "single-source report",
        "verification_status": "not independently verified",
        "independent_source_count": 1,
        "report_count": 1,
        "accounts": [
          "Conflict_Radar"
        ],
        "source_classes": [
          "social_media_osint"
        ],
        "event_types": [
          "reported_strike"
        ],
        "location_name": "Lark Island, Iran",
        "location_precision": "regional_approximate",
        "first_reported_at": null,
        "last_updated_at": "2026-07-23T02:42:51Z",
        "source_urls": [
          "https://x.com/Conflict_Radar/status/2077860961898349037"
        ],
        "reports": [
          {
            "url": "https://x.com/Conflict_Radar/status/2077860961898349037",
            "account": "Conflict_Radar",
            "text": "Development seed: an early report referenced activity near Lark Island.",
            "published_at": null,
            "collected_at": "2026-07-23T02:42:51Z",
            "source_class": "social_media_osint",
            "location_name": "Lark Island, Iran",
            "latitude": 26.86,
            "longitude": 56.35,
            "location_precision": "regional_approximate",
            "event_type": "reported_strike",
            "verification_status": "not independently verified",
            "source_status": "single-source report",
            "quoted_source": null,
            "reposted_from": null,
            "fetch_attempted": false,
            "fetch_succeeded": false,
            "fetch_error": null,
            "id": "x-report-50522960f7c02729302e",
            "claim_id": "x-claim-7ca2f5de35454cc456b9"
          }
        ]
      }
    },
    {
      "type": "Feature",
      "geometry": {
        "type": "Point",
        "coordinates": [
          60.62,
          25.3
        ]
      },
      "properties": {
        "id": "x-event-76949a850d174e89c590",
        "layer": "Social Media Early Reports",
        "title": "Early report: Shahid Kalantari Port, Chabahar, Iran",
        "summary": "On July 16, U.S. forces destroyed the Chah Bahar Shahid Kalantari Port surveillance tower.",
        "source_status": "official-source report",
        "verification_status": "not independently verified",
        "independent_source_count": 1,
        "report_count": 2,
        "accounts": [
          "CENTCOM",
          "Osint613"
        ],
        "source_classes": [
          "official_military",
          "social_media_aggregator"
        ],
        "event_types": [
          "official_strike_statement",
          "reported_strike"
        ],
        "location_name": "Shahid Kalantari Port, Chabahar, Iran",
        "location_precision": "facility_approximate",
        "first_reported_at": null,
        "last_updated_at": "2026-07-23T02:42:51Z",
        "source_urls": [
          "https://x.com/CENTCOM/status/2078125131847594149",
          "https://x.com/Osint613/status/2079561392814801310"
        ],
        "reports": [
          {
            "url": "https://x.com/CENTCOM/status/2078125131847594149",
            "account": "CENTCOM",
            "text": "On July 16, U.S. forces destroyed the Chah Bahar Shahid Kalantari Port surveillance tower.",
            "published_at": null,
            "collected_at": "2026-07-23T02:42:51Z",
            "source_class": "official_military",
            "location_name": "Shahid Kalantari Port, Chabahar, Iran",
            "latitude": 25.3,
            "longitude": 60.62,
            "location_precision": "facility_approximate",
            "event_type": "official_strike_statement",
            "verification_status": "not independently verified",
            "source_status": "single-source report",
            "quoted_source": null,
            "reposted_from": null,
            "fetch_attempted": false,
            "fetch_succeeded": false,
            "fetch_error": null,
            "id": "x-report-e951c4b190f33ef58ffa",
            "claim_id": "x-claim-8ed77734fb4171d8ea52"
          },
          {
            "url": "https://x.com/Osint613/status/2079561392814801310",
            "account": "Osint613",
            "text": "Development seed: an aggregator repeated the CENTCOM Chabahar statement.",
            "published_at": null,
            "collected_at": "2026-07-23T02:42:51Z",
            "source_class": "social_media_aggregator",
            "location_name": "Shahid Kalantari Port, Chabahar, Iran",
            "latitude": 25.3,
            "longitude": 60.62,
            "location_precision": "facility_approximate",
            "event_type": "reported_strike",
            "verification_status": "not independently verified",
            "source_status": "single-source report",
            "quoted_source": "https://x.com/CENTCOM/status/2078125131847594149",
            "reposted_from": null,
            "fetch_attempted": false,
            "fetch_succeeded": false,
            "fetch_error": null,
            "id": "x-report-43a415678d6bf1d9e284",
            "claim_id": "x-claim-8ed77734fb4171d8ea52"
          }
        ]
      }
    }
  ]
}
